<?xml version="1.0" encoding="UTF-8"?>
<ndm xmlns:xsi="http://www.w3.org/2001/XMLSchema-instance" xsi:noNamespaceSchemaLocation="https://sanaregistry.org/r/ndmxml_unqualified/ndmxml-2.0.0-master-2.0.xsd">
<omm id="CCSDS_OMM_VERS" version="2.0">
<header><CREATION_DATE/><ORIGINATOR/></header><body><segment><metadata><OBJECT_NAME>ORBCOMM FM33</OBJECT_NAME><OBJECT_ID>1999-065D</OBJECT_ID><CENTER_NAME>EARTH</CENTER_NAME><REF_FRAME>TEME</REF_FRAME><TIME_SYSTEM>UTC</TIME_SYSTEM><MEAN_ELEMENT_THEORY>SGP4</MEAN_ELEMENT_THEORY></metadata><data><meanElements><EPOCH>2025-10-20T00:43:41.164320</EPOCH><MEAN_MOTION>14.40312169</MEAN_MOTION><ECCENTRICITY>.0007945</ECCENTRICITY><INCLINATION>45.0261</INCLINATION><RA_OF_ASC_NODE>125.2916</RA_OF_ASC_NODE><ARG_OF_PERICENTER>334.0252</ARG_OF_PERICENTER><MEAN_ANOMALY>26.0198</MEAN_ANOMALY></meanElements><tleParameters><EPHEMERIS_TYPE>0</EPHEMERIS_TYPE><CLASSIFICATION_TYPE>U</CLASSIFICATION_TYPE><NORAD_CAT_ID>25983</NORAD_CAT_ID><ELEMENT_SET_NO>999</ELEMENT_SET_NO><REV_AT_EPOCH>35406</REV_AT_EPOCH><BSTAR>.79188389E-3</BSTAR><MEAN_MOTION_DOT>.2392E-4</MEAN_MOTION_DOT><MEAN_MOTION_DDOT>0</MEAN_MOTION_DDOT></tleParameters></data></segment></body></omm>
<omm id="CCSDS_OMM_VERS" version="2.0">
<header><CREATION_DATE/><ORIGINATOR/></header><body><segment><metadata><OBJECT_NAME>ORBCOMM FM36</OBJECT_NAME><OBJECT_ID>1999-065E</OBJECT_ID><CENTER_NAME>EARTH</CENTER_NAME><REF_FRAME>TEME</REF_FRAME><TIME_SYSTEM>UTC</TIME_SYSTEM><MEAN_ELEMENT_THEORY>SGP4</MEAN_ELEMENT_THEORY></metadata><data><meanElements><EPOCH>2025-10-20T03:45:47.237472</EPOCH><MEAN_MOTION>14.38484051</MEAN_MOTION><ECCENTRICITY>.00026131</ECCENTRICITY><INCLINATION>45.0381</INCLINATION><RA_OF_ASC_NODE>218.5251</RA_OF_ASC_NODE><ARG_OF_PERICENTER>247.5053</ARG_OF_PERICENTER><MEAN_ANOMALY>112.5520</MEAN_ANOMALY></meanElements><tleParameters><EPHEMERIS_TYPE>0</EPHEMERIS_TYPE><CLASSIFICATION_TYPE>U</CLASSIFICATION_TYPE><NORAD_CAT_ID>25984</NORAD_CAT_ID><ELEMENT_SET_NO>999</ELEMENT_SET_NO><REV_AT_EPOCH>35241</REV_AT_EPOCH><BSTAR>.90151959E-3</BSTAR><MEAN_MOTION_DOT>.2637E-4</MEAN_MOTION_DOT><MEAN_MOTION_DDOT>0</MEAN_MOTION_DDOT></tleParameters></data></segment></body></omm>
<omm id="CCSDS_OMM_VERS" version="2.0">
<header><CREATION_DATE/><ORIGINATOR/></header><body><segment><metadata><OBJECT_NAME>ORBCOMM FM35</OBJECT_NAME><OBJECT_ID>1999-065F</OBJECT_ID><CENTER_NAME>EARTH</CENTER_NAME><REF_FRAME>TEME</REF_FRAME><TIME_SYSTEM>UTC</TIME_SYSTEM><MEAN_ELEMENT_THEORY>SGP4</MEAN_ELEMENT_THEORY></metadata><data><meanElements><EPOCH>2025-10-20T03:47:23.517312</EPOCH><MEAN_MOTION>14.37414080</MEAN_MOTION><ECCENTRICITY>.0005422</ECCENTRICITY><INCLINATION>45.0390</INCLINATION><RA_OF_ASC_NODE>224.5596</RA_OF_ASC_NODE><ARG_OF_PERICENTER>309.9744</ARG_OF_PERICENTER><MEAN_ANOMALY>50.0628</MEAN_ANOMALY></meanElements><tleParameters><EPHEMERIS_TYPE>0</EPHEMERIS_TYPE><CLASSIFICATION_TYPE>U</CLASSIFICATION_TYPE><NORAD_CAT_ID>25985</NORAD_CAT_ID><ELEMENT_SET_NO>999</ELEMENT_SET_NO><REV_AT_EPOCH>35276</REV_AT_EPOCH><BSTAR>.78586427E-3</BSTAR><MEAN_MOTION_DOT>.2229E-4</MEAN_MOTION_DOT><MEAN_MOTION_DDOT>0</MEAN_MOTION_DDOT></tleParameters></data></segment></body></omm>
<omm id="CCSDS_OMM_VERS" version="2.0">
<header><CREATION_DATE/><ORIGINATOR/></header><body><segment><metadata><OBJECT_NAME>ORBCOMM FM34</OBJECT_NAME><OBJECT_ID>1999-065G</OBJECT_ID><CENTER_NAME>EARTH</CENTER_NAME><REF_FRAME>TEME</REF_FRAME><TIME_SYSTEM>UTC</TIME_SYSTEM><MEAN_ELEMENT_THEORY>SGP4</MEAN_ELEMENT_THEORY></metadata><data><meanElements><EPOCH>2025-10-20T04:37:32.726496</EPOCH><MEAN_MOTION>14.37394950</MEAN_MOTION><ECCENTRICITY>.00047046</ECCENTRICITY><INCLINATION>45.0381</INCLINATION><RA_OF_ASC_NODE>224.8506</RA_OF_ASC_NODE><ARG_OF_PERICENTER>273.1228</ARG_OF_PERICENTER><MEAN_ANOMALY>86.9082</MEAN_ANOMALY></meanElements><tleParameters><EPHEMERIS_TYPE>0</EPHEMERIS_TYPE><CLASSIFICATION_TYPE>U</CLASSIFICATION_TYPE><NORAD_CAT_ID>25986</NORAD_CAT_ID><ELEMENT_SET_NO>999</ELEMENT_SET_NO><REV_AT_EPOCH>35288</REV_AT_EPOCH><BSTAR>.65340173E-3</BSTAR><MEAN_MOTION_DOT>.1829E-4</MEAN_MOTION_DOT><MEAN_MOTION_DDOT>0</MEAN_MOTION_DDOT></tleParameters></data></segment></body></omm>
<omm id="CCSDS_OMM_VERS" version="2.0">
<header><CREATION_DATE/><ORIGINATOR/></header><body><segment><metadata><OBJECT_NAME>ORBCOMM FM38</OBJECT_NAME><OBJECT_ID>2008-031A</OBJECT_ID><CENTER_NAME>EARTH</CENTER_NAME><REF_FRAME>TEME</REF_FRAME><TIME_SYSTEM>UTC</TIME_SYSTEM><MEAN_ELEMENT_THEORY>SGP4</MEAN_ELEMENT_THEORY></metadata><data><meanElements><EPOCH>2025-10-20T06:00:23.727168</EPOCH><MEAN_MOTION>14.81901274</MEAN_MOTION><ECCENTRICITY>.00054433</ECCENTRICITY><INCLINATION>48.4385</INCLINATION><RA_OF_ASC_NODE>79.0221</RA_OF_ASC_NODE><ARG_OF_PERICENTER>223.7898</ARG_OF_PERICENTER><MEAN_ANOMALY>136.2587</MEAN_ANOMALY></meanElements><tleParameters><EPHEMERIS_TYPE>0</EPHEMERIS_TYPE><CLASSIFICATION_TYPE>U</CLASSIFICATION_TYPE><NORAD_CAT_ID>33060</NORAD_CAT_ID><ELEMENT_SET_NO>999</ELEMENT_SET_NO><REV_AT_EPOCH>93329</REV_AT_EPOCH><BSTAR>.61759744E-3</BSTAR><MEAN_MOTION_DOT>.473E-4</MEAN_MOTION_DOT><MEAN_MOTION_DDOT>0</MEAN_MOTION_DDOT></tleParameters></data></segment></body></omm>
<omm id="CCSDS_OMM_VERS" version="2.0">
<header><CREATION_DATE/><ORIGINATOR/></header><body><segment><metadata><OBJECT_NAME>ORBCOMM FM41</OBJECT_NAME><OBJECT_ID>2008-031B</OBJECT_ID><CENTER_NAME>EARTH</CENTER_NAME><REF_FRAME>TEME</REF_FRAME><TIME_SYSTEM>UTC</TIME_SYSTEM><MEAN_ELEMENT_THEORY>SGP4</MEAN_ELEMENT_THEORY></metadata><data><meanElements><EPOCH>2025-10-20T05:35:51.539424</EPOCH><MEAN_MOTION>14.81465934</MEAN_MOTION><ECCENTRICITY>.00045498</ECCENTRICITY><INCLINATION>48.4418</INCLINATION><RA_OF_ASC_NODE>87.3209</RA_OF_ASC_NODE><ARG_OF_PERICENTER>209.5043</ARG_OF_PERICENTER><MEAN_ANOMALY>211.3093</MEAN_ANOMALY></meanElements><tleParameters><EPHEMERIS_TYPE>0</EPHEMERIS_TYPE><CLASSIFICATION_TYPE>U</CLASSIFICATION_TYPE><NORAD_CAT_ID>33061</NORAD_CAT_ID><ELEMENT_SET_NO>999</ELEMENT_SET_NO><REV_AT_EPOCH>93277</REV_AT_EPOCH><BSTAR>.59164538E-3</BSTAR><MEAN_MOTION_DOT>.4474E-4</MEAN_MOTION_DOT><MEAN_MOTION_DDOT>0</MEAN_MOTION_DDOT></tleParameters></data></segment></body></omm>
<omm id="CCSDS_OMM_VERS" version="2.0">
<header><CREATION_DATE/><ORIGINATOR/></header><body><segment><metadata><OBJECT_NAME>ORBCOMM FM29</OBJECT_NAME><OBJECT_ID>2008-031C</OBJECT_ID><CENTER_NAME>EARTH</CENTER_NAME><REF_FRAME>TEME</REF_FRAME><TIME_SYSTEM>UTC</TIME_SYSTEM><MEAN_ELEMENT_THEORY>SGP4</MEAN_ELEMENT_THEORY></metadata><data><meanElements><EPOCH>2025-10-20T06:37:02.163072</EPOCH><MEAN_MOTION>14.81591021</MEAN_MOTION><ECCENTRICITY>.00062575</ECCENTRICITY><INCLINATION>48.4366</INCLINATION><RA_OF_ASC_NODE>94.7674</RA_OF_ASC_NODE><ARG_OF_PERICENTER>207.2773</ARG_OF_PERICENTER><MEAN_ANOMALY>214.5711</MEAN_ANOMALY></meanElements><tleParameters><EPHEMERIS_TYPE>0</EPHEMERIS_TYPE><CLASSIFICATION_TYPE>U</CLASSIFICATION_TYPE><NORAD_CAT_ID>33062</NORAD_CAT_ID><ELEMENT_SET_NO>999</ELEMENT_SET_NO><REV_AT_EPOCH>93269</REV_AT_EPOCH><BSTAR>.58822566E-3</BSTAR><MEAN_MOTION_DOT>.4461E-4</MEAN_MOTION_DOT><MEAN_MOTION_DDOT>0</MEAN_MOTION_DDOT></tleParameters></data></segment></body></omm>
<omm id="CCSDS_OMM_VERS" version="2.0">
<header><CREATION_DATE/><ORIGINATOR/></header><body><segment><metadata><OBJECT_NAME>ORBCOMM FM39</OBJECT_NAME><OBJECT_ID>2008-031D</OBJECT_ID><CENTER_NAME>EARTH</CENTER_NAME><REF_FRAME>TEME</REF_FRAME><TIME_SYSTEM>UTC</TIME_SYSTEM><MEAN_ELEMENT_THEORY>SGP4</MEAN_ELEMENT_THEORY></metadata><data><meanElements><EPOCH>2025-10-20T00:21:00.684864</EPOCH><MEAN_MOTION>14.80074485</MEAN_MOTION><ECCENTRICITY>.00068437</ECCENTRICITY><INCLINATION>48.4374</INCLINATION><RA_OF_ASC_NODE>121.6802</RA_OF_ASC_NODE><ARG_OF_PERICENTER>176.7034</ARG_OF_PERICENTER><MEAN_ANOMALY>183.3927</MEAN_ANOMALY></meanElements><tleParameters><EPHEMERIS_TYPE>0</EPHEMERIS_TYPE><CLASSIFICATION_TYPE>U</CLASSIFICATION_TYPE><NORAD_CAT_ID>33063</NORAD_CAT_ID><ELEMENT_SET_NO>999</ELEMENT_SET_NO><REV_AT_EPOCH>93228</REV_AT_EPOCH><BSTAR>.51075335E-3</BSTAR><MEAN_MOTION_DOT>.3702E-4</MEAN_MOTION_DOT><MEAN_MOTION_DDOT>0</MEAN_MOTION_DDOT></tleParameters></data></segment></body></omm>

</ndm>
