ORBCOMM FM33            
1 25983U 99065D   25293.03033755  .00002392  00000+0  79188-3 0  9994
2 25983  45.0261 125.2916 0007945 334.0252  26.0198 14.40312169354062
ORBCOMM FM36            
1 25984U 99065E   25293.15679673  .00002637  00000+0  90152-3 0  9999
2 25984  45.0381 218.5251 0002613 247.5053 112.5520 14.38484051352412
ORBCOMM FM35            
1 25985U 99065F   25293.15791108  .00002229  00000+0  78586-3 0  9992
2 25985  45.0390 224.5596 0005422 309.9744  50.0628 14.37414080352760
ORBCOMM FM34            
1 25986U 99065G   25293.19273989  .00001829  00000+0  65340-3 0  9998
2 25986  45.0381 224.8506 0004704 273.1228  86.9082 14.37394950352884
ORBCOMM FM38            
1 33060U 08031A   25293.25027462  .00004730  00000+0  61760-3 0  9999
2 33060  48.4385  79.0221 0005443 223.7898 136.2587 14.81901274933297
ORBCOMM FM41            
1 33061U 08031B   25293.23323541  .00004474  00000+0  59165-3 0  9996
2 33061  48.4418  87.3209 0004549 209.5043 211.3093 14.81465934932770
ORBCOMM FM29            
1 33062U 08031C   25293.27571948  .00004461  00000+0  58823-3 0  9993
2 33062  48.4366  94.7674 0006257 207.2773 214.5711 14.81591021932694
ORBCOMM FM39            
1 33063U 08031D   25293.01459126  .00003702  00000+0  51075-3 0  9998
2 33063  48.4374 121.6802 0006843 176.7034 183.3927 14.80074485932284
